#dP2022  7 14  0  0  0.00000000      96 __u+U ITR14 FIT  IAC
## 2218 345600.00000000   900.00000000 59774 0.0000000000000
+  126   C01C02C03C04C05C06C07C08C09C10C11C12C13C14C16C19C20
+        C21C22C23C24C25C26C27C28C29C30C32C33C34C35C36C37C38
+        C39C40C41C42C43C44C45C46C60E01E02E03E04E05E07E08E09
+        E10E11E12E13E14E15E18E19E21E24E25E26E27E30E31E33E34
+        E36G01G02G03G04G05G06G07G08G09G10G11G12G13G14G15G16
+        G17G18G19G20G21G22G23G24G25G26G27G28G29G30G31G32J02
+        J03J07R01R02R03R04R05R06R07R08R09R10R11R12R13R14R15
+        R17R18R19R20R21R23R24  0  0  0  0  0  0  0  0  0  0
++        17 16 17 17 16  9  9  9  8  9  9  9  9  9  9  7  7
++         7  7  7  7  7  7  7  7  7  7  6  7  7  7  7  7  8
++         8  8  7  8  8  7  7  7 17  5  4  4  5  4  4  4  4
++         5  4  4  4  5  4  5  4  4  4  4  4  5  4  5  5  4
++         4  3  4  4  4  4  3  4  4  4  3  4  3  4  4  4  4
++         4  4  4  4  4  4  3  3  4  4  4  4  4  4  4  3  8
++         8 17  7  6  6  6  6 16  6  6  6 15  6  6  7  6  6
++         6  6  7  7  6  0  6  0  0  0  0  0  0  0  0  0  0
%c M  cc GPS ccc cccc cccc cccc cccc ccccc ccccc ccccc ccccc
%c cc cc ccc ccc cccc cccc cccc cccc ccccc ccccc ccccc ccccc
%f  0.0000000  0.000000000  0.00000000000  0.000000000000000
%f  0.0000000  0.000000000  0.00000000000  0.000000000000000
%i    0    0    0    0      0      0      0      0         0
%i    0    0    0    0      0      0      0      0         0
/* INFORMATION & ANALYSIS CENTER (IAC)            RAPID DATA
/* S/V CLOCKS ARE ALIGNED TO GNSS TIME                      
/* G:C1WC2W R:C1PC2P E:C1XC5X C:C2IC6I J:C1CC2S             
/* PCV:IGS14_2215 OL/AL:FES2004  NONE     YN ORB:CoN CLK:CoN
*  2022 07 14 23  0  0.00000000
PC01 -34301.420566  24536.659412   -176.622944    420.046375
PC02   4467.202140  41862.373271  -1512.882004   -191.564350
PC03 -14716.269462  39480.505246   -655.633293   -486.439313
PC04 -39601.243864  14482.995298    302.753136    327.885101
PC05  22040.483501  35906.130097  -1211.195949   -132.048296
PC06  -3838.732195  38641.659315 -16100.783446    395.030998
PC07  -7658.330333  25949.256362  32360.011798   -429.814653
PC08 -18414.749204  32779.129842 -19261.777789    404.262132
PC09    506.256056  40938.643377  -8513.092929   -927.672384
PC10     -0.312656  27391.721311  32379.052331    118.421726
PC11  16410.535933   6154.424077 -21666.708492    474.686522
PC12  12999.304387  22750.424702  -9601.238175   -576.972769
PC13 -13611.078889  33235.261057 -22193.401225     24.105419
PC14  27450.604771   4004.488883   3339.777901    541.669989
PC16  -4900.845511  37463.123049 -18219.467339    143.089620
PC19 -24928.574461   2781.407305 -12182.541961   -210.808273
PC20 -25979.575690  -9139.652392   4403.468623   -963.914765
PC21  11460.684226  16390.043454 -19458.322838   -678.864833
PC22  -9384.584117  13629.031162 -22467.148650   -962.847794
PC23  15531.374307 -22449.800335  -5780.929463   -945.446681
PC24  15847.526529   6369.235294  22063.499777   -967.800135
PC25  22183.926787 -12939.442718  10890.663549   -707.550265
PC26   1730.196827  19451.559015  19938.706131    709.492629
PC27  -8420.556589 -26587.473884   1102.952993    754.283976
PC28   4184.309611 -23139.720432 -15023.828835     90.036473
PC29 -14736.594557   6087.840802  22890.879622    581.741807
PC30 -16921.574596 -14918.247481  16427.113239    501.082319
PC32 -11462.057039 -16330.096164  19519.088312   -972.580313
PC33  24983.904370  -2890.867430  12117.927742   -166.769635
PC34  17106.824102  13862.635308 -17149.054038   -358.753982
PC35  -4255.405707  22554.932734  15838.442551    366.039146
PC36 -22493.617995  12003.860875 -11316.035203   -973.351658
PC37   -173.557715 -20070.104179 -19359.234353   -917.024750
PC38 -22876.794938  33602.296874 -11490.766419     10.149290
PC39  -7306.367432  33987.671310 -23684.368053     -0.066185
PC40 -12500.850116  19634.755702  35118.960682     -0.585064
PC41   9926.987752 -13511.668525  22358.650998    -80.921330
PC42  25617.181545   9692.056393  -5369.559841   -953.695571
PC43  15146.092244  -5286.306052 -22847.396149      2.948195
PC44   9278.135185  26285.621634   -956.209088    724.190605
PC45 -15318.324700  22519.657582   6133.899510    809.058431
PC46 -16857.971405  -4707.492429 -21732.617728   -432.131033
PC60   7336.363622  41533.014260     99.478600     -0.116803
PE01   8390.179177 -18049.840142 -21901.762655   -515.237040
PE02  -8202.600090  18052.477103  21983.928871    311.972038
PE03   3250.991671  21949.633537 -19597.232294   -579.040866
PE04 -19298.564539 -22058.011840   4142.987037  -1071.504390
PE05 -15071.337380   8916.413266 -23858.607754   -162.937246
PE07  24345.592639   9087.556724  14194.441056   -687.543592
PE08  19510.241219  21913.892242  -3966.871777   -563.711421
PE09 -24298.409232  -9065.372118 -14247.115678   -587.764092
PE10 -12845.196717 -12372.082923  23606.531007   -500.574138
PE11 -16310.666410   -596.375186  24674.594401   3008.363646
PE12  -7593.184847 -21573.240324  18787.913406    -62.343094
PE13  16098.500316   1387.282419 -24806.022242    429.809384
PE14  18535.066629  23793.106952   -273.310170  -1778.974646
PE15   7505.711125  21655.523726 -18733.765342    733.237859
PE18  -7579.535045 -23708.583643  -9665.120425  -1213.638403
PE19   -831.956628 -20846.816050  21006.786175  -5092.305153
PE21  24608.506046 -13783.325009  -8977.015418   -745.929654
PE24 -27531.721598    373.093327 -10896.400633   -725.104334
PE25 -24767.216488  13660.776857   8737.683453   -581.071894
PE26  15048.328917 -20237.587669 -15498.547199  -1377.473112
PE27  27851.963596  -1300.237107   9937.862120   -344.900928
PE30  13733.247417  12416.116013  23089.927580   -672.629353
PE31 -14686.595760 -11815.332323 -22810.160599   -499.927949
PE33   5474.829075 -29045.808462   1638.114620   -454.703400
PE34  -5285.292855  29072.541552  -1853.675505   -485.872213
PE36 -15169.469365  19526.123650  16263.263283   -402.236770
PG01 -13699.647278  20590.047890   8893.212151    321.357832
PG02  15310.838568  -1036.995077 -21050.145163 999999.999999
PG03 -19683.174311  12536.123550 -12693.016388   -307.233308
PG04 -10145.139223  11499.300341 -21669.742829   -145.852153
PG05  26054.494230  -5508.092199   -890.431968    -89.150589
PG06   8792.739459  14902.912961 -20068.952858    385.086529
PG07  -4239.549808  25305.992096   6165.505472    319.268299
PG08 -15948.904977   4020.255137  20883.100237    -76.203103
PG09    379.387900  19521.448119 -18060.270705   -318.994243
PG10 -10597.959184 -12522.682398  21097.607428   -491.973903
PG11  15480.709800   1681.553391 -21517.569644    -10.743787
PG12  22232.881732 -10022.583275 -10658.086597   -246.477826
PG13  18750.173234   6749.054400  17491.860767    348.515654
PG14   8542.840933  13829.361704  21025.153435   -111.814276
PG15  15830.417543  -5959.465958  20119.986542    -45.394023
PG16 -26176.476416  -1418.145727  -5859.653799   -515.345174
PG17  12485.494568  22787.238832   5787.504831    636.899838
PG18   5054.658113 -25331.368966   5890.823810    113.186346
PG19  17260.318311  19983.342652  -4119.951347    183.771888
PG20  23280.901182   1180.209470 -12508.976116    503.188390
PG21 -15897.302867  12346.845431  17584.738166    161.108931
PG22 -18266.109372 -18477.586245  -5523.684711    292.427099
PG23   1537.510357 -15454.449892  21521.282318    -32.929673
PG24  14306.235614 -18003.479030  12618.261031    196.832104
PG25   9980.424754 -15740.476633 -19105.929615    349.204946
PG26 -21442.614779  -5853.725252 -14854.596090    218.236926
PG27 -20651.646879  -9117.382344  14085.737993    220.662816
PG28  16988.484892  10663.240968  17800.429536    334.417896
PG29    702.903863 -19423.145140 -18118.304112   -533.582409
PG30   3434.581517  21895.005046  14541.286357   -533.985605
PG31 -11070.856136 -12392.477722 -20755.482655   -185.762954
PG32 -15732.750718 -21307.283624   3219.226096   -176.406549
PJ02 -31434.517874  25921.445478  15720.693419     -1.694584
PJ03 -25272.283583  27899.865372  24158.516160     -0.130441
PJ07 -25352.808046  33691.231775    -11.774122     -0.013042
PR01  23811.215086   9053.069157   1471.074364     11.490275
PR02  17352.015434  -1794.755154  18627.040350    524.125934
PR03   1099.471501 -11343.346085  22870.017774     60.218426
PR04 -15454.315364 -14285.136907  14449.425702    150.664875
PR05 -23564.218422  -9602.014389  -1942.227531     96.239151
PR06 -16634.809205   3091.932566 -19106.253203 999999.999999
PR07   -398.924165  11560.407582 -22690.676146     37.864842
PR08  15618.915716  14245.373618 -14199.107243    -66.201726
PR09 -20928.703974  14195.829919  -2982.648113     65.798638
PR10 -13446.234067  17731.389178  12529.898088 999999.999999
PR11   2682.213456  11437.807660  22653.524905     33.280525
PR12  17551.024316  -2050.192471  18420.745322     19.298126
PR13  21215.880151 -13461.368524   4399.963893    -24.613249
PR14  12306.984328 -17568.468307 -13803.515173     24.881294
PR15  -3456.517395 -11014.809311 -22721.589283     94.681786
PR17   1741.846433 -23693.169223  -9230.593659    543.538219
PR18  -5715.849410 -23694.697391   7607.608956     32.871980
PR19  -9722.808783 -12674.356574  19876.086560   -196.321704
PR20  -9090.466457   9429.513553  21880.605740    -74.599636
PR21  -1106.627526  24289.064694   7757.043216   -317.436860
PR23  10576.256364   6766.412775 -22218.792944 999999.999999
PR24   9093.058523 -10431.014334 -21414.925971    103.597122
EOF
